ONEWEB-0589             
1 54655U 22166P   24343.50929649 -.00000003  00000+0 -39876-4 0  9993
2 54655  87.9296 354.6913 0002726  91.3278 268.8168 13.21827416 98131
ONEWEB-0590             
1 54656U 22166Q   24343.76003199  .00000054  00000+0  99951-4 0  9999
2 54656  87.9282 354.6475 0001875  96.1227 264.0121 13.21826117 98618
ONEWEB-0591             
1 54657U 22166R   24343.54556843  .00000040  00000+0  66161-4 0  9997
2 54657  87.9296 354.6858 0001980  93.2978 266.8382 13.21825155 98156
ONEWEB-0592             
1 54658U 22166S   24343.54870183  .00000019  00000+0  13373-4 0  9997
2 54658  87.9290 354.6445 0001941  93.8604 266.2752 13.21827829 98034
ONEWEB-0593             
1 54659U 22166T   24343.79944758  .00001038  00000+0  24807-2 0  9999
2 54659  87.9295 354.6263 0002061  91.5663 268.5706 13.21833463 98644
ONEWEB-0594             
1 54660U 22166U   24343.74267294  .00000132  00000+0  28720-3 0  9992
2 54660  87.9298 354.6434 0001794  88.6149 271.5191 13.21826941 98642
ONEWEB-0595             
1 54661U 22166V   24343.56922322  .00000015  00000+0  53412-5 0  9991
2 54661  87.9295 354.6613 0001666  93.8972 266.2352 13.21825926 98135
ONEWEB-0596             
1 54662U 22166W   24343.76949141  .00000064  00000+0  12254-3 0  9993
2 54662  87.9299 354.6302 0002027  96.2606 263.8758 13.21827551 98632
ONEWEB-0597             
1 54663U 22166X   24343.75057173  .00000103  00000+0  21803-3 0  9992
2 54663  87.9299 354.6363 0002052  89.5164 270.6205 13.21826966 98634
ONEWEB-0600             
1 54664U 22166Y   24343.50613563  .00000027  00000+0  35050-4 0  9992
2 54664  87.9293 354.7154 0001953  88.1576 271.9781 13.21826923 98107
ONEWEB-0601             
1 54665U 22166Z   24343.49825125  .00000015  00000+0  56400-5 0  9990
2 54665  87.9300 354.6942 0002274  93.7841 266.3553 13.21826871 98292
ONEWEB-0602             
1 54666U 22166AA  24343.53923382  .00000005  00000+0 -18637-4 0  9999
2 54666  87.9299 354.6882 0002075  86.6627 273.4744 13.21822875 98140
ONEWEB-0603             
1 54667U 22166AB  24343.77107515  .00000024  00000+0  26301-4 0  9995
2 54667  87.9275 354.6339 0002177  90.1876 269.9507 13.21827493 98565
ONEWEB-0604             
1 54668U 22166AC  24343.75844042  .00000086  00000+0  17559-3 0  9999
2 54668  87.9293 354.6162 0002022  84.9172 275.2192 13.21827323 98538
ONEWEB-0605             
1 54669U 22166AD  24343.75215301  .00000092  00000+0  19047-3 0  9991
2 54669  87.9291 354.6493 0002404 102.8595 257.2808 13.21824955 98607
ONEWEB-0606             
1 54670U 22166AE  24343.54714501  .00000026  00000+0  30862-4 0  9992
2 54670  87.9301 354.6899 0001636  91.7541 268.3780 13.21824983 98168
ONEWEB-0607             
1 54671U 22166AF  24343.74110907  .00000127  00000+0  27565-3 0  9992
2 54671  87.9295 354.6232 0002037  88.7236 271.4131 13.21826961 98629
ONEWEB-0608             
1 54672U 22166AG  24343.82311308  .00000081  00000+0  16460-3 0  9991
2 54672  87.9279 354.6291 0002329  93.4553 266.6848 13.21826373 98646
ONEWEB-0610             
1 54673U 22166AH  24343.80419100  .00000034  00000+0  50235-4 0  9996
2 54673  87.9297 354.6287 0002308  94.5237 265.6160 13.21823317 98551
ONEWEB-0611             
1 54674U 22166AJ  24343.49508874  .00000008  00000+0 -12748-4 0  9998
2 54674  87.9296 354.6881 0001500  85.8622 274.2684 13.21828119 98030
ONEWEB-0612             
1 54675U 22166AK  24343.58341391  .00000112  00000+0  23995-3 0  9998
2 54675  87.9293 354.6508 0002048  91.5681 268.5688 13.21824834 98503
ONEWEB-0615             
1 54676U 22166AL  24343.48878880  .00000016  00000+0  64507-5 0  9995
2 54676  87.9294 354.6951 0002015  85.9962 274.1403 13.21826107 98031
ONEWEB-0655             
1 54677U 22166AM  24343.53767188  .00000091  00000+0  18863-3 0  9995
2 54677  87.9296 354.6884 0002061  81.8881 278.2486 13.21827338 98038
ONEWEB-0659             
1 54678U 22166AN  24343.55501162  .00000012  00000+0 -30680-5 0  9993
2 54678  87.9295 354.6891 0001678  94.9314 265.2011 13.21828406 98122
ONEWEB-0685             
1 54679U 22166AP  24343.78369014  .00000016  00000+0  75345-5 0  9997
2 54679  87.9295 354.6356 0002008  86.2158 273.9206 13.21828718 98518
ONEWEB-0712             
1 54680U 22166AQ  24343.44624984 -.00000106  00000+0 -31079-3 0  9998
2 54680  87.9076 339.4886 0001882  68.1128 292.0203 13.16594244 98934
ONEWEB-0714             
1 54681U 22166AR  24343.56290504 -.00000007  00000+0 -47248-4 0  9995
2 54681  87.9296 354.6685 0001993  87.3835 272.7527 13.21823198 98131
ONEWEB-0532             
1 55140U 23004A   24343.40839198  .00000149  00000+0  35041-3 0  9991
2 55140  87.9091 116.5798 0001880 113.3697 246.7633 13.17650684 94392
ONEWEB-0533             
1 55141U 23004B   24343.76473330 -.00000020  00000+0 -89773-4 0  9995
2 55141  87.8884 101.2486 0001653  98.8797 261.2518 13.12443394 95201
ONEWEB-0541             
1 55142U 23004C   24343.43661967 -.00000340  00000+0 -99450-3 0  9992
2 55142  87.8891 131.7891 0001492  98.2574 261.8723 13.11415378 93107
ONEWEB-0543             
1 55143U 23004D   24343.52064726  .00000019  00000+0  16597-4 0  9996
2 55143  87.9108  86.1015 0001528  89.9272 270.2035 13.18685792 96461
ONEWEB-0544             
1 55144U 23004E   24343.59019950 -.00000008  00000+0 -54005-4 0  9999
2 55144  87.9107  86.0746 0001425 104.6522 255.4768 13.18688353 96475
ONEWEB-0560             
1 55145U 23004F   24343.73562767  .00000099  00000+0  21821-3 0  9992
2 55145  87.9114  86.0070 0001277 102.6330 257.4944 13.18685947 96502
ONEWEB-0565             
1 55146U 23004G   24343.57755003  .00000082  00000+0  17443-3 0  9999
2 55146  87.9109  86.1081 0001426 125.8245 234.3019 13.18685961 96477
ONEWEB-0567             
1 55147U 23004H   24343.57122515  .00000081  00000+0  17249-3 0  9999
2 55147  87.9108  86.0640 0001221 116.0254 244.1004 13.18687744 96476
ONEWEB-0569             
1 55148U 23004J   24343.52014684 -.00000193  00000+0 -56307-3 0  9996
2 55148  87.8932  70.7194 0000679 123.6337 236.4857 13.13469441 97239
ONEWEB-0570             
1 55149U 23004K   24343.33095896  .00000116  00000+0  26131-3 0  9995
2 55149  87.9112  86.1121 0002078 122.7734 237.3599 13.18685915 96433
ONEWEB-0571             
1 55150U 23004L   24343.55226038  .00000168  00000+0  39275-3 0  9995
2 55150  87.9113  86.0754 0001289 143.8360 216.2859 13.18688292 96479
ONEWEB-0572             
1 55151U 23004M   24343.43877655  .00001174  00000+0  29914-2 0  9996
2 55151  87.9089 116.5809 0001703 110.8102 249.3212 13.17644221 94292
ONEWEB-0573             
1 55152U 23004N   24343.54593117  .00000122  00000+0  27631-3 0  9994
2 55152  87.9110  86.0893 0001630 138.3560 221.7697 13.18689092 96462
ONEWEB-0588             
1 55153U 23004P   24343.76724404  .00000028  00000+0  39007-4 0  9990
2 55153  87.9114  86.0207 0001871 120.0103 240.1214 13.18687824 96498
ONEWEB-0598             
1 55154U 23004Q   24343.49088809  .00000590  00000+0  16283-2 0  9996
2 55154  87.8890 131.8167 0000912 116.6894 243.4328 13.11416981 93065
ONEWEB-0599             
1 55155U 23004R   24343.39994309  .00000132  00000+0  30694-3 0  9992
2 55155  87.9098 116.5824 0001355  96.7634 263.3651 13.17652148 94298
ONEWEB-0614             
1 55156U 23004S   24343.79099080  .00000499  00000+0  13730-2 0  9996
2 55156  87.8890 131.7633 0001858 100.3868 259.7469 13.11417788 93067
ONEWEB-0616             
1 55157U 23004T   24343.36619907  .00000112  00000+0  25404-3 0  9990
2 55157  87.9094 116.5896 0001435  53.9666 306.1598 13.17651419 94504
ONEWEB-0617             
1 55158U 23004U   24343.77911762  .00000241  00000+0  64494-3 0  9995
2 55158  87.8887 131.7539 0001718 108.1703 251.9612 13.11417931 93074
ONEWEB-0618             
1 55159U 23004V   24343.69894230  .00000738  00000+0  29284-3 0  9996
2 55159  86.9087  31.4010 0015223  80.8838 279.4076 14.27489327100230
ONEWEB-0619             
1 55160U 23004W   24343.39826274  .00000110  00000+0  25008-3 0  9992
2 55160  87.9094 116.5602 0002000  90.8282 269.3079 13.17651350 94403
ONEWEB-0620             
1 55161U 23004X   24343.46882503 -.00000149  00000+0 -45602-3 0  9994
2 55161  87.8887 131.8303 0001559 115.1754 244.9536 13.11418427 92993
ONEWEB-0621             
1 55162U 23004Y   24343.41967376  .00000460  00000+0  12628-2 0  9997
2 55162  87.8888 131.8038 0001736  94.0275 266.1051 13.11414210 92961
ONEWEB-0622             
1 55163U 23004Z   24343.42475733  .00000259  00000+0  69531-3 0  9992
2 55163  87.8888 131.8221 0002121 116.8238 243.3107 13.11413910 92951
ONEWEB-0623             
1 55164U 23004AA  24343.62102325  .00000029  00000+0  41753-4 0  9991
2 55164  87.9095 116.5706 0002362 107.7193 252.4196 13.17650330 94425
ONEWEB-0624             
1 55165U 23004AB  24343.80704541 -.00000300  00000+0 -86961-3 0  9993
2 55165  87.8888 101.2492 0001741 104.1338 255.9984 13.12441734 95201
ONEWEB-0625             
1 55166U 23004AC  24343.61089424  .00000068  00000+0  14082-3 0  9993
2 55166  87.9095 116.5711 0001467  92.3835 267.7464 13.17649009 94417
ONEWEB-0626             
1 55167U 23004AD  24343.37294202  .00000116  00000+0  26447-3 0  9991
2 55167  87.9092 116.6177 0001229 116.3801 243.7457 13.17652480 94387
ONEWEB-0627             
1 55168U 23004AE  24343.43706975  .00000192  00000+0  46150-3 0  9991
2 55168  87.9093 116.6067 0002124 111.2963 248.8396 13.17651698 94394
ONEWEB-0628             
1 55169U 23004AF  24343.40639988  .00000428  00000+0  11545-2 0  9999
2 55169  87.8883 101.3112 0002372 105.4986 254.6405 13.12442114 95133
ONEWEB-0629             
1 55170U 23004AG  24343.41262156  .00000127  00000+0  29303-3 0  9999
2 55170  87.9088 116.5847 0001881  90.2229 269.9118 13.17647697 94396
ONEWEB-0631             
1 55171U 23004AH  24343.60916764  .00000066  00000+0  13546-3 0  9996
2 55171  87.9119  85.9673 0001652 124.9906 235.1381 13.18687397 96459
